CAS-2T & KS-1Q          
1 41847U 16066G   20354.76812716  .00000098  00000-0  24668-4 0  9992
2 41847  98.6296  46.9045 0366150  36.6888 325.8776 14.38127689216055
NAYIF-1 (EO-88)         
1 42017U 17008BX  20354.82925640  .00002371  00000-0  91532-4 0  9997
2 42017  97.3397  59.5343 0006925  39.0906 321.0833 15.27231541213830
ZHUHAI-1 02 (CAS-4B)    
1 42759U 17034B   20354.79161846  .00000412  00000-0  38328-4 0  9993
2 42759  43.0177  88.6402 0008553 117.7848  27.2813 15.10005277193987
ZHUHAI-1 01 (CAS-4A)    
1 42761U 17034D   20354.79248726  .00000432  00000-0  39417-4 0  9991
2 42761  43.0175  87.8129 0008882 120.0624  25.7772 15.10085507193980
MAX VALIER SAT          
1 42778U 17036P   20354.71319999  .00001313  00000-0  58532-4 0  9992
2 42778  97.2816  43.0062 0013756  90.7439 269.5375 15.23061247193924
RADFXSAT (FOX-1B)       
1 43017U 17073E   20354.68967925  .00000552  00000-0  47901-4 0  9996
2 43017  97.7170 259.7149 0256345 166.3415 194.4909 14.79217237166547
FOX-1D (AO-92)          
1 43137U 18004AC  20354.73527395  .00001604  00000-0  67853-4 0  9990
2 43137  97.4280  64.4892 0010402 119.7197 240.5077 15.24623848163272
DIWATA-2B               
1 43678U 18084H   20354.75177281 -.00000195  00000-0 -13594-4 0  9994
2 43678  97.9040 113.3859 0008635 288.2551  71.7744 14.91683802116642
ES'HAIL 2               
1 43700U 18090A   20354.68657014  .00000144  00000-0  00000-0 0  9992
2 43700   0.0175 359.5796 0001337 292.2574  69.8460  1.00270794  7569
FOX-1CLIFF (AO-95)      
1 43770U 18099N   20354.83468621  .00000154  00000-0  19194-4 0  9998
2 43770  97.6880  62.8020 0013262 301.1822  58.8098 14.95142472111617
ITASAT 1                
1 43786U 18099AE  20354.79064558  .00000200  00000-0  23279-4 0  9992
2 43786  97.6893  63.3110 0013836 293.4322  66.5444 14.95457748111637
JY1SAT (JO-97)          
1 43803U 18099AX  20354.71488294  .00000066  00000-0  11118-4 0  9990
2 43803  97.6857  63.0156 0013843 294.0411  65.9361 14.95666705111623
PSAT2 (NO-104)          
1 44354U 19036R   20354.83007407  .00014991  00000-0  20876-3 0  9992
2 44354  28.5269 239.7919 0346004 136.2794 226.5747 15.08240091 81780
BRICSAT2 (NO-103)       
1 44355U 19036S   20354.88353777  .00026586  00000-0  33442-3 0  9998
2 44355  28.5271 217.6471 0307002 172.2870 188.2588 15.18260147 82011
JAISAT-1                
1 44419U 19038F   20354.87409945  .00001297  00000-0  76480-4 0  9991
2 44419  97.5648 314.5964 0020382 207.8068 152.2075 15.13221209 80636
DUCHIFAT-3              
1 44854U 19089C   20354.65616394  .00000642  00000-0  58036-4 0  9994
2 44854  36.9646  83.7162 0006863 119.6797 240.4624 14.99257073 56102
RS-44 & BREEZE-KM R/B   
1 44909U 19096E   20354.72960709  .00000018  00000-0  23377-4 0  9990
2 44909  82.5218 232.2003 0217794 153.0881 208.1717 12.79707827 45883
ORBITAL FACTORY 2 (OF-2)
1 45113U 19071C   20354.72761367  .00002250  00000-0  77721-4 0  9992
2 45113  51.6408 188.0140 0012324   8.1905 351.9276 15.34395217 49564
HUSKYSAT-1              
1 45119U 19071J   20354.81363935  .00002922  00000-0  97141-4 0  9991
2 45119  51.6407 187.0882 0011640   4.9757 355.1339 15.34531455 49573
BY70-2                  
1 45857U 20042B   20354.75363965  .00001293  00000-0  19249-3 0  9998
2 45857  98.0007  66.3043 0012241  77.1770 283.0799 14.76556350 25025
SALSAT                  
1 46495U 20068K   20354.88650197  .00000589  00000-0  47930-4 0  9991
2 46495  97.6790 287.6395 0015836 324.8095  35.2082 15.03304322 12356
BY70-3                  
1 46839U 20079N   20354.81798490  .00002916  00000-0  95352-4 0  9994
2 46839  97.2618  66.2059 0008843 123.6223 305.1125 15.32474970  6684
